[
    {
        "Altitude(m)": 605459.0616909763,
        "Argument of Periapsis(deg)": 0.0,
        "Eccentricity": 0.0,
        "Inclination(deg)": 60.0,
        "Latitude(deg)": 27.988320802907317,
        "Longitude(deg)": 62.79855136098843,
        "Mean Anomaly(deg)": 32.727299999999985,
        "RAAN(deg)": 145.0,
        "Satellite Name": "Test1 640",
        "Satellite Number": 640,
        "Semi-Major Axis(m)": 6980739.136638005,
        "Time(s)": 0
    },
    {
        "Altitude(m)": 605535.8532260526,
        "Argument of Periapsis(deg)": 0.00010418945913296404,
        "Eccentricity": 0.0,
        "Inclination(deg)": 60.0,
        "Latitude(deg)": 28.501450695539805,
        "Longitude(deg)": 63.15549607141445,
        "Mean Anomaly(deg)": 33.34740614546184,
        "RAAN(deg)": 144.99957995086027,
        "Satellite Name": "Test1 640",
        "Satellite Number": 640,
        "Semi-Major Axis(m)": 6980739.136638005,
        "Time(s)": 10
    }
]